1 25158U 98007B   19273.67584048  .00000106  00000-0  92123-4 0  9997
2 25158 107.9935 190.5219 0050807 272.4301  87.1019 14.29430345125743
1 25158U 98007B   19273.81580338 +.00000108 +00000-0 +92681-4 0  9992
2 25158 107.9935 190.8074 0050811 272.1934 087.3385 14.29430426125624
1 25158U 98007B   19274.79554358  .00000119  00000-0  96806-4 0  9998
2 25158 107.9935 192.8065 0050806 270.5684  88.9631 14.29430996125908
1 25158U 98007B   19275.63532074 +.00000118 +00000-0 +96622-4 0  9998
2 25158 107.9936 194.5200 0050776 269.1622 090.3697 14.29431428125888
1 25158U 98007B   19276.33513493  .00000116  00000-0  95943-4 0  9993
2 25158 107.9936 195.9479 0050752 267.9938  91.5386 14.29431793126122
1 25158U 98007B   19276.82500476 +.00000117 +00000-0 +96116-4 0  9998
2 25158 107.9936 196.9474 0050740 267.1802 092.3527 14.29432055126057
1 25158U 98007B   19277.45483736  .00000113  00000-0  94569-4 0  9993
2 25158 107.9936 198.2325 0050717 266.1288  93.4049 14.29432341126282
1 25158U 98007B   19277.80474425 +.00000113 +00000-0 +94645-4 0  9992
2 25158 107.9936 198.9465 0050717 265.5402 093.9940 14.29432541126192
1 25158U 98007B   19278.78448357  .00000106  00000-0  91912-4 0  9991
2 25158 107.9937 200.9456 0050682 263.9167  95.6193 14.29433009126478
1 25158U 98007B   19279.83420414 +.00000096 +00000-0 +88029-4 0  9995
2 25158 107.9937 203.0876 0050652 262.1677 097.3708 14.29433418126488
1 25158U 98007B   19279.83420414  .00000096  00000-0  88029-4 0  9995
2 25158 107.9937 203.0876 0050652 262.1677  97.3708 14.29433418126624
1 25158U 98007B   19280.74396179 +.00000081 +00000-0 +82506-4 0  9995
2 25158 107.9938 204.9439 0050627 260.6490 098.8920 14.29433723126618
1 25158U 98007B   19281.44377530  .00000076  00000-0  80407-4 0  9995
2 25158 107.9938 206.3719 0050604 259.4786 100.0647 14.29433965126850
1 25158U 98007B   19281.79368194 +.00000072 +00000-0 +78887-4 0  9994
2 25158 107.9939 207.0859 0050607 258.8945 100.6498 14.29434110126760
1 25158U 98007B   19282.49349525  .00000076  00000-0  80364-4 0  9996
2 25158 107.9939 208.5138 0050574 257.7258 101.8213 14.29434410127003
1 25158U 98007B   19282.84340184 +.00000080 +00000-0 +81737-4 0  9997
2 25158 107.9940 209.2278 0050570 257.1363 102.4121 14.29434585126912
1 25158U 98007B   19283.75315885  .00000094  00000-0  87497-4 0  9992
2 25158 107.9941 211.0841 0050532 255.6107 103.9418 14.29435058127188
1 25158U 98007B   19283.82314016 +.00000092 +00000-0 +86745-4 0  9998
2 25158 107.9941 211.2269 0050532 255.4919 104.0608 14.29435076127052
1 25158U 98007B   19284.73289698 +.00000098 +00000-0 +89039-4 0  9991
2 25158 107.9943 213.0832 0050498 253.9707 105.5864 14.29435514127180
1 25158U 98007B   19284.80287833  .00000097  00000-0  88428-4 0  9998
2 25158 107.9943 213.2260 0050487 253.8566 105.7010 14.29435530127337
